SL-3 R/B                
1 19046U 88032B   17356.96157233 -.00000561  00000-0 -37213-4 0  9993
2 19046  97.5041  38.1741 0039935  51.7619 308.7189 15.02350952600699
SL-16 R/B               
1 19120U 88039B   17357.20235663  .00000145  00000-0  92095-4 0  9990
2 19120  71.0156 285.5392 0024361 259.4899 100.3481 14.19179017533201
COSMOS 1953             
1 19210U 88050A   17357.53730919  .00000941  00000-0  63408-4 0  9993
2 19210  82.5162 209.7771 0013174 341.1716  18.9021 15.05462575606329
SL-8 R/B                
1 19257U 88053B   17357.19214736  .00000073  00000-0  33136-4 0  9994
2 19257  74.0483 229.0680 0019337  72.2836  71.4961 14.37387393545921
COSMOS 1975             
1 19573U 88093A   17356.92089917  .00000079  00000-0  35564-5 0  9994
2 19573  82.5188 162.8639 0014889  22.3505 337.8367 15.04359584567044
SL-14 R/B               
1 19574U 88093B   17356.96133753  .00000077  00000-0  64497-5 0  9992
2 19574  82.5316 328.5673 0020760 210.7213 201.9135 14.83248284556346
SL-16 R/B               
1 19650U 88102B   17357.43341770 -.00000078  00000-0 -15180-4 0  9998
2 19650  70.9994 337.1609 0016662 256.7683 103.1581 14.15762566502771
INTERCOSMOS 24          
1 20261U 89080A   17356.82407591  .00000243  00000-0  66438-4 0  9994
2 20261  82.5972 247.7446 1204225  21.7719 343.0365 12.55949398290058
SL-14 R/B               
1 20262U 89080C   17356.92823019  .00000027  00000-0  25909-5 0  9992
2 20262  82.5942 295.1918 1237138 186.2205 172.2207 12.48880586285701
DELTA 1 R/B             
1 20323U 89089B   17356.88047355  .00000021  00000-0  14776-4 0  9998
2 20323  97.1235 273.1007 0071047 206.1239 153.6366 14.48234423461502
DELTA 2 R/B(1)          
1 20453U 90008B   17357.04142412  .00000600  00000-0  36590-4 0  9995
2 20453  35.6250 200.2135 0288059 299.6298  57.6012 14.83792040476261
COSMOS 2058             
1 20465U 90010A   17357.17540429  .00000228  00000-0  17140-4 0  9991
2 20465  82.4903  66.1435 0016022  23.9007 336.2955 14.97647322513627
SL-14 R/B               
1 20466U 90010B   17356.70386068  .00000075  00000-0  65282-5 0  9998
2 20466  82.5022 196.2162 0022039  80.1533 280.2168 14.81308377505405
SL-14 R/B               
1 20511U 90018B   17356.88877368  .00000091  00000-0  89185-5 0  9990
2 20511  82.5226 138.3872 0016726 210.0296 262.7021 14.79966253499970
HST                     
1 20580U 90037B   17356.93412855  .00000444  00000-0  16247-4 0  9999
2 20580  28.4682 200.1600 0002810  45.9644  90.1244 15.08949163318737
SL-16 R/B               
1 20625U 90046B   17356.86610671  .00000284  00000-0  17216-3 0  9995
2 20625  70.9993 113.1379 0014583 189.1462 170.9397 14.14624191424268
COSMOS 2084             
1 20663U 90055A   17356.40185440  .00000022  00000-0  19845-4 0  9999
2 20663  62.7928 319.8600 0135590 108.4488 253.1400 14.91742332487882
SL-6 R/B(2)             
1 20666U 90055D   17356.95718674  .00000019  00000-0  19857-4 0  9992
2 20666  62.7840 236.3389 0116828 128.1769 232.9919 14.92061222489873
SL-8 R/B                
1 20775U 90078B   17356.80608335  .00001338  00000-0  63453-4 0  9990
2 20775  82.9299 253.4626 0586037 120.7561 245.2693 14.31567932375750
SL-8 R/B                
1 21088U 91006B   17356.82968993  .00000010  00000-0 -53757-5 0  9995
2 21088  82.9430 239.9905 0022990 149.3887 279.7061 13.77079919351291
OKEAN-3                 
1 21397U 91039A   17357.44948000  .00000255  00000-0  22232-4 0  9993
2 21397  82.5218 318.6134 0017104 329.0827  30.9384 14.92603292438011
COSMOS 2151             
1 21422U 91042A   17356.73863523  .00000210  00000-0  18153-4 0  9991
2 21422  82.5013  67.0208 0014881  30.7870 329.4219 14.91907166436616
SL-14 R/B               
1 21423U 91042B   17356.93119308  .00000090  00000-0  88949-5 0  9996
2 21423  82.4933 145.0421 0017452 357.2712   2.8402 14.79718215409459
ERS-1                   
1 21574U 91050A   17356.88161737  .00000026  00000-0  22949-4 0  9995
2 21574  98.4837 301.2493 0034011 110.8995 249.5838 14.37624651384704
ARIANE 40 R/B           
1 21610U 91050F   17357.20684976  .00000011  00000-0  17308-4 0  9995
2 21610  98.5810  54.6767 0004310  98.6375 328.8974 14.40823587387331
INTERCOSMOS 25          
1 21819U 91086A   17356.90638132  .00000705  00000-0  13374-3 0  9992
2 21819  82.5718 309.6725 1521585  45.3815 326.1680 12.04706543135006
SL-14 R/B               
1 21820U 91086B   17356.64764394  .00000085  00000-0  16857-4 0  9996
2 21820  82.5625   7.3033 1575856 241.2297 102.1673 11.93356371129262
SL-8 R/B                
1 21876U 92008B   17356.93743505  .00000067  00000-0  53930-4 0  9998
2 21876  82.9261 336.9205 0033713 225.8707 188.6910 13.75616653297105
SL-8 R/B                
1 21938U 92020B   17356.78186569  .00000083  00000-0  70851-4 0  9994
2 21938  82.9298 220.4435 0029911  28.0533  24.1001 13.75255171288919
SL-16 R/B               
1 22220U 92076B   17357.23983189 -.00000207  00000-0 -80069-4 0  9996
2 22220  71.0004  21.3009 0013803 334.7138  94.5849 14.16426297297549
SL-16 R/B               
1 22285U 92093B   17357.54771420  .00000094  00000-0  72854-4 0  9998
2 22285  71.0192 175.0486 0005436 220.3380 139.7340 14.15015042289322
COSMOS 2228             
1 22286U 92094A   17356.70261963  .00000201  00000-0  19203-4 0  9992
2 22286  82.5193 196.3275 0020399 212.6133 147.3826 14.87887759350524
SL-16 R/B               
1 22566U 93016B   17357.52776124 -.00000251  00000-0 -10488-3 0  9991
2 22566  71.0081  29.4852 0011675 217.3960 142.6352 14.14956176278057
COSMOS 2242             
1 22626U 93024A   17357.13345365  .00000207  00000-0  19909-4 0  9990
2 22626  82.5219 223.6774 0018146 210.1152 149.9024 14.87751565334244
SL-16 R/B               
1 22803U 93059B   17357.01993319 -.00000177  00000-0 -64608-4 0  9994
2 22803  70.9882 211.5218 0014983  99.7686 260.5130 14.16784879255027
ARIANE 40 R/B           
1 22830U 93061H   17356.93316998 -.00000051  00000-0 -18776-5 0  9996
2 22830  98.8737  16.5547 0011889  96.8843 263.3692 14.31414235264991
COSMOS 2278             
1 23087U 94023A   17357.40177945 -.00000235  00000-0 -99187-4 0  9998
2 23087  71.0528 323.5096 0011393 281.5888  78.3955 14.13753335221232
SL-16 R/B               
1 23088U 94023B   17356.92610222 -.00000129  00000-0 -42524-4 0  9990
2 23088  71.0008 245.9190 0003861 213.5569 146.5309 14.14666101221966
SL-16 R/B               
1 23343U 94074B   17357.18196241 -.00000023  00000-0  42614-5 0  9992
2 23343  98.1302  35.9027 0006920 176.1503 224.7394 14.76719954244729
SL-16 R/B               
1 23405U 94077B   17356.92893356 -.00000266  00000-0 -11203-3 0  9994
2 23405  70.9802 178.5687 0002171 338.2866  21.8164 14.15198164191969
ERS-2                   
1 23560U 95021A   17357.50126742  .00001288  00000-0  61408-4 0  9995
2 23560  98.5553  15.4321 0004230  38.4157 321.7376 15.21369002204167
ARIANE 40+ R/B          
1 23561U 95021B   17357.06213899  .00000027  00000-0  24241-4 0  9991
2 23561  98.7960   2.6479 0007863  64.5031 346.2388 14.37850237188392
SL-16 R/B               
1 23705U 95058B   17357.39811172  .00000054  00000-0  52412-4 0  9996
2 23705  71.0214 352.0578 0012262 359.1079   1.0019 14.15104540143959
SL-16 R/B               
1 24298U 96051B   17357.16419970 -.00000146  00000-0 -52801-4 0  9999
2 24298  70.8452  23.8435 0018742 260.2645  99.6358 14.12476784 98501
ORBVIEW 2 (SEASTAR)     
1 24883U 97037A   17356.86687458  .00000039  00000-0  30057-4 0  9996
2 24883  98.5526 103.1478 0001262 261.2976  98.8066 14.33428435 78931
SL-16 R/B               
1 25400U 98043G   17356.89815384 -.00000001  00000-0  17381-4 0  9999
2 25400  98.5134 299.3001 0010966 102.4817 257.7590 14.25425714 11723
SL-16 R/B               
1 25407U 98045B   17357.15118183 -.00000073  00000-0 -12913-4 0  9997
2 25407  71.0111   4.3288 0010164 276.4168  83.5798 14.15767286  2933
ISS (ZARYA)             
1 25544U 98067A   17357.61580788  .00000960  00000-0  21679-4 0  9990
2 25544  51.6398 173.9875 0002562 279.4335 195.8394 15.54204702 91214
SL-8 R/B                
1 25723U 99022C   17356.87837710  .00005651  00000-0  82170-4 0  9993
2 25723  48.4144 239.1594 0009985 223.9631 136.0521 15.57242754 35554
CZ-4B R/B               
1 25732U 99025C   17357.55337786 -.00000036  00000-0  47579-5 0  9998
2 25732  98.9953   1.6353 0036406 272.6499 195.2132 14.17642475963462
OKEAN-O                 
1 25860U 99039A   17357.08089911  .00000026  00000-0  11337-4 0  9997
2 25860  98.2039 344.7289 0000792 100.4575 259.6723 14.76521758991707
SL-16 R/B               
1 25861U 99039B   17356.93061161  .00000019  00000-0  10084-4 0  9998
2 25861  98.1306 329.7765 0015393 189.5519 227.4226 14.78452033993552
TERRA                   
1 25994U 99068A   17357.52676285  .00000210  00000-0  56639-4 0  9991
2 25994  98.2140  69.8682 0000928 100.2037 259.9291 14.57108591958242
ENVISAT                 
1 27386U 02009A   17357.45175109  .00000011  00000-0  17240-4 0  9992
2 27386  98.2078  34.5851 0001465  83.0623 277.0733 14.37911696828279
IDEFIX & ARIANE 42P R/B 
1 27422U 02021B   17356.96776606 -.00000042  00000-0 -40304-6 0  9996
2 27422  98.2412 346.9067 0013070  41.2120 319.0047 14.29259878815532
AQUA                    
1 27424U 02022A   17356.94206383  .00000127  00000-0  38234-4 0  9996
2 27424  98.2248 295.5804 0000319 177.1084 256.0682 14.57101261831715
CZ-4B R/B               
1 27432U 02024C   17357.52855353 -.00000027  00000-0  99861-5 0  9993
2 27432  99.0131 332.4096 0049845 216.0667 251.0923 14.14055785805553
MIDORI II (ADEOS-II)    
1 27597U 02056A   17357.46810055  .00000057  00000-0  40497-4 0  9995
2 27597  98.3969 319.2410 0001952 107.1562 252.9833 14.27326128782426
H-2A R/B                
1 27601U 02056E   17357.15391372  .00000041  00000-0  30000-4 0  9995
2 27601  98.3542  58.2002 0073318  95.0549 318.2994 14.31815977784854
